OBJECT_NAME,OBJECT_ID,EPOCH,MEAN_MOTION,ECCENTRICITY,INCLINATION,RA_OF_ASC_NODE,ARG_OF_PERICENTER,MEAN_ANOMALY,EPHEMERIS_TYPE,CLASSIFICATION_TYPE,NORAD_CAT_ID,ELEMENT_SET_NO,REV_AT_EPOCH,BSTAR,MEAN_MOTION_DOT,MEAN_MOTION_DDOT
STARLINK-36207,2025-293M,2026-06-25T10:11:32.701056,14.98335951,.0003466,69.9999,182.8890,267.0221,93.0541,0,U,67014,999,3102,.23148E-3,.267E-4,0
STARLINK-36093,2025-293N,2026-06-25T09:47:29.980896,14.98334482,.0003873,70.0004,182.8321,266.0459,94.0257,0,U,67015,999,3102,.2482E-3,.287E-4,0
STARLINK-36120,2025-293P,2026-06-25T09:59:31.212672,14.98335085,.0004301,70.0002,182.8600,263.9674,96.0995,0,U,67016,999,3102,.1985E-3,.2277E-4,0
STARLINK-35498,2025-293Q,2026-06-25T09:35:29.671872,14.98320495,.0004198,69.9998,182.7999,268.1624,91.9054,0,U,67017,999,3102,-.55451E-4,-.755E-5,0
STARLINK-36106,2025-293R,2026-06-25T10:59:37.315392,14.98334467,.0003638,69.9999,182.6049,268.7965,91.2777,0,U,67018,999,3103,.38683E-3,.4526E-4,0
STARLINK-35688,2025-293S,2026-06-25T10:41:49.934112,14.98336964,.0004115,70.0004,182.9624,264.5518,95.5171,0,U,67019,999,3102,.13301E-3,.1495E-4,0
STARLINK-36172,2025-293T,2026-06-25T09:53:44.956896,14.98337881,.0003716,70.0002,182.8449,267.5031,92.5703,0,U,67020,999,3101,.27802E-3,.3227E-4,0
STARLINK-36184,2025-293U,2026-06-25T10:17:47.659776,14.98333325,.0003964,70.0000,182.9031,268.3230,91.7475,0,U,67021,999,3102,.19859E-3,.2278E-4,0
STARLINK-36209,2025-293V,2026-06-25T11:05:48.849216,14.98346311,.000348,70.0003,182.6187,280.0462,80.0304,0,U,67022,999,3103,.14066E-3,.1586E-4,0
STARLINK-36191,2025-293W,2026-06-25T10:29:48.913152,14.98338829,.0003281,70.0001,182.9331,269.3192,90.7591,0,U,67023,999,3102,.30732E-3,.3577E-4,0
STARLINK-36192,2025-293X,2026-06-25T10:05:46.493664,14.98331005,.000436,70.0003,182.8728,265.1785,94.8876,0,U,67024,999,3102,.40546E-3,.4749E-4,0
STARLINK-36178,2025-293Y,2026-06-25T11:17:51.574848,14.98338463,.0003793,70.0003,182.6469,266.8326,93.2399,0,U,67025,999,3103,.26403E-3,.3059E-4,0
STARLINK-36176,2025-293Z,2026-06-25T10:47:48.437088,14.98340422,.0003406,70.0000,182.5732,267.5343,92.5426,0,U,67026,999,3102,.30169E-3,.351E-4,0
STARLINK-36171,2025-293AA,2026-06-25T10:53:48.845184,14.98338491,.0003916,70.0001,182.5903,265.1537,94.9175,0,U,67027,999,3103,.23157E-3,.2672E-4,0
STARLINK-36132,2025-293AB,2026-06-25T10:23:48.047136,14.98332433,.0004135,70.0000,182.9164,268.9413,91.1272,0,U,67028,999,3102,.96663E-4,.1061E-4,0
STARLINK-36190,2025-293AC,2026-06-25T10:35:49.392096,14.98336578,.0003648,70.0003,182.9478,265.9700,94.1042,0,U,67029,999,3102,.12525E-3,.1402E-4,0
STARLINK-36138,2025-294A,2026-06-25T14:44:36.295008,15.27601464,.0001798,42.9980,148.6831,282.1513,77.9137,0,U,67030,999,3130,.61924E-3,.16828E-3,0
STARLINK-36150,2025-294B,2026-06-25T15:19:32.259648,15.27597923,.0004186,43.0006,148.0108,264.6991,95.3383,0,U,67031,999,3131,.58046E-3,.15756E-3,0
STARLINK-36131,2025-294C,2026-06-25T15:36:14.540256,15.27569870,.0001454,43.0015,148.0959,273.2190,86.8496,0,U,67032,999,3131,.64089E-3,.1741E-3,0
STARLINK-36137,2025-294D,2026-06-25T15:30:38.477088,15.27605680,.0001891,43.0041,148.0664,253.4362,106.6283,0,U,67033,999,3131,.81578E-3,.22272E-3,0
STARLINK-36140,2025-294E,2026-06-25T15:06:48.369600,15.27604732,.0001233,43.0023,148.8035,260.4111,99.6602,0,U,67034,999,3130,.5755E-3,.1562E-3,0
STARLINK-36085,2025-294F,2026-06-25T15:10:30.961056,15.27595888,.0000353,42.9996,148.8182,343.5917,16.4923,0,U,67035,999,3130,.57885E-3,.15708E-3,0
STARLINK-36125,2025-294G,2026-06-25T05:03:01.125216,15.27586749,.00012418,42.9994,150.8070,266.5362,93.5348,0,U,67036,999,3124,.10969197E-2,.30052E-3,0
STARLINK-35732,2025-294H,2026-06-25T05:34:30.173952,15.27586209,.00013348,42.9986,150.9739,294.3426,65.7287,0,U,67037,999,3124,.90401102E-3,.24702E-3,0
STARLINK-35775,2025-294J,2026-06-25T04:44:29.519232,15.27583824,.00015671,43.0006,150.7131,268.7838,91.2834,0,U,67038,999,3125,-.14672683E-3,-.4298E-4,0
STARLINK-35705,2025-294K,2026-06-25T04:51:56.821536,15.27583054,.00010024,42.9999,150.7474,262.3453,97.7284,0,U,67039,999,3124,.88192512E-3,.24088E-3,0
STARLINK-35786,2025-294L,2026-06-25T14:55:44.395104,15.27592969,.0001284,42.9964,148.7412,270.3210,89.7495,0,U,67040,999,3130,.74847E-3,.204E-3,0
STARLINK-35765,2025-294M,2026-06-25T14:39:02.971584,15.27604904,.000232,42.9978,148.6474,274.3706,85.6881,0,U,67041,999,3130,.8777E-3,.23988E-3,0
STARLINK-35773,2025-294N,2026-06-25T14:35:20.939136,15.27611611,.0002362,42.9998,148.6314,271.5036,88.5545,0,U,67042,999,3130,.89421E-3,.24451E-3,0
STARLINK-35901,2025-294P,2026-06-25T14:46:27.342336,15.27601506,.0002057,42.9970,148.6875,278.3652,81.6966,0,U,67043,999,3130,.72861E-3,.19855E-3,0
STARLINK-35884,2025-294Q,2026-06-25T15:25:06.149856,15.27601080,.0001397,43.0022,148.0352,266.7461,93.3230,0,U,67044,999,3131,.70369E-3,.19165E-3,0
STARLINK-35891,2025-294R,2026-06-25T05:40:01.555968,15.27606938,.0001405,43.0010,151.0036,266.8437,93.2253,0,U,67045,999,3124,.87703E-3,.2397E-3,0
STARLINK-35721,2025-294S,2026-06-25T14:53:51.459072,15.27597798,.0001693,42.9969,148.7263,267.7668,92.2990,0,U,67046,999,3130,.60476E-3,.16426E-3,0
STARLINK-35779,2025-294T,2026-06-25T04:59:18.922560,15.27596665,.00002395,42.9982,150.7889,166.6836,193.4022,0,U,67047,999,3124,.70696205E-3,.19253E-3,0
STARLINK-35905,2025-294U,2026-06-25T14:40:54.296256,15.27604004,.0002005,42.9985,148.6605,272.1000,87.9622,0,U,67048,999,3130,.79856E-3,.21794E-3,0
STARLINK-35877,2025-294V,2026-06-25T15:01:15.530880,15.27604244,.0001775,42.9988,148.7703,268.0289,92.0359,0,U,67049,999,3130,.73702E-3,.2009E-3,0
STARLINK-36078,2025-294W,2026-06-25T04:42:39.692736,15.27600006,.00021696,43.0017,150.6973,286.2122,73.8491,0,U,67050,999,3124,.72454991E-3,.19742E-3,0
STARLINK-35706,2025-294X,2026-06-25T14:33:29.680992,15.27617410,.000312,42.9982,148.6153,275.3546,84.6950,0,U,67051,999,3130,.12443E-2,.34178E-3,0
STARLINK-35720,2025-294Y,2026-06-25T09:39:55.789920,15.27595298,.0001354,43.0002,149.6660,267.1051,92.9646,0,U,67052,999,3127,.63412E-3,.17237E-3,0
STARLINK-35739,2025-294Z,2026-06-25T14:48:18.139968,15.27600308,.0002012,42.9986,148.6942,276.9037,83.1586,0,U,67053,999,3130,.6783E-3,.18462E-3,0
STARLINK-35754,2025-294AA,2026-06-25T09:43:38.067744,15.27591523,.0002063,42.9995,149.6858,277.1614,82.9003,0,U,67054,999,3127,.37998E-3,.10212E-3,0
STARLINK-35790,2025-294AB,2026-06-25T14:52:00.443712,15.27598529,.0001751,42.9972,148.7147,279.0650,81.0004,0,U,67055,999,3130,.5676E-3,.15399E-3,0
STARLINK-36143,2025-294AC,2026-06-25T04:53:45.803904,15.27596030,.00005625,42.9991,150.7573,255.1023,104.9766,0,U,67056,999,3124,.67695611E-3,.18422E-3,0
STARLINK-36141,2025-294AD,2026-06-25T00:05:45.401280,15.27607702,.00016389,43.0001,151.8344,266.3345,93.7320,0,U,67057,999,3121,.59136954E-3,.1606E-3,0
STARLINK-35767,2025-294AE,2026-06-25T15:03:06.522048,15.27605654,.0001418,43.0003,148.7759,276.8643,83.2048,0,U,67058,999,3130,.11094E-2,.30417E-3,0
HULIANWANG DIGUI-119,2025-295A,2026-06-25T17:26:53.055744,13.29329865,.0001073,50.0049,355.1539,114.6645,245.4339,0,U,67059,999,2663,.59177E-4,-.97E-6,0
HULIANWANG DIGUI-120,2025-295B,2026-06-25T17:02:49.863840,13.29329859,.000108,50.0055,355.0761,118.1663,241.9319,0,U,67060,999,2663,.87737E-4,-.83E-6,0
HULIANWANG DIGUI-121,2025-295C,2026-06-25T17:14:51.766080,13.29329478,.0001059,50.0016,355.0515,115.4233,244.6748,0,U,67061,999,2663,.57857E-4,-.97E-6,0
HULIANWANG DIGUI-122,2025-295D,2026-06-25T16:50:40.091424,13.29331285,.0001052,50.0050,355.0233,115.3293,244.7689,0,U,67062,999,2663,.75078E-4,-.89E-6,0
HULIANWANG DIGUI-123,2025-295E,2026-06-25T20:15:12.362112,13.29330911,.000105,50.0053,354.4445,115.6453,244.4528,0,U,67063,999,2665,.81286E-4,-.86E-6,0
HULIANWANG DIGUI-124,2025-295F,2026-06-25T16:26:53.587680,13.29328043,.0001064,50.0013,354.8685,116.3956,243.7025,0,U,67064,999,2663,.72307E-4,-.9E-6,0
HULIANWANG DIGUI-125,2025-295G,2026-06-25T16:14:47.062176,13.29328679,.0001067,50.0002,354.8094,115.1157,244.9826,0,U,67065,999,2663,.64708E-4,-.94E-6,0
HULIANWANG DIGUI-126,2025-295H,2026-06-25T16:02:38.941728,13.29329802,.0001148,50.0005,354.7694,115.0296,245.0695,0,U,67066,999,2663,.537E-4,-.99E-6,0
HULIANWANG DIGUI-127,2025-295J,2026-06-25T17:38:53.272320,13.29329785,.0001088,50.0023,354.4884,116.1245,243.9739,0,U,67067,999,2664,.51717E-4,-.1E-5,0
XIWANG-5 02,2025-296A,2026-06-25T18:28:55.348320,15.16602740,.0004526,41.3518,72.3572,213.4446,146.6090,0,U,67069,999,2954,.60721E-3,.11914E-3,0
DEAR-5,2025-296B,2026-06-25T16:14:19.505760,15.17566646,.0019018,41.3611,69.1095,279.3128,80.5543,0,U,67070,999,2956,.20895E-3,.4091E-4,0
RAISE-4,2025-297B,2026-06-25T08:36:01.834848,15.09063981,.0012458,97.5123,324.2423,15.6718,344.4894,0,U,67073,999,2912,.28171E-3,.4406E-4,0
STARLINK-36230,2025-298A,2026-06-25T19:53:15.587232,14.98337785,.0002506,70.0016,101.8783,270.4341,89.6531,0,U,67075,999,2941,.11507E-3,.1281E-4,0
STARLINK-36240,2025-298B,2026-06-25T19:41:14.116128,14.98348692,.0002824,70.0016,101.8492,268.8561,91.2275,0,U,67076,999,2941,.54664E-3,.6438E-4,0
STARLINK-36243,2025-298C,2026-06-25T20:17:18.110400,14.98350251,.0002696,70.0018,101.9404,255.7422,104.3438,0,U,67077,999,2941,.18563E-3,.2124E-4,0
STARLINK-36236,2025-298D,2026-06-25T20:05:16.995264,14.98335690,.0002896,70.0018,101.9078,269.4973,90.5854,0,U,67078,999,2941,.2319E-3,.2675E-4,0
STARLINK-36159,2025-298E,2026-06-25T20:35:18.200256,14.98337893,.0002205,70.0033,101.5889,268.5923,91.4983,0,U,67079,999,2942,.44538E-3,.5226E-4,0
STARLINK-36158,2025-298F,2026-06-25T20:29:03.145632,14.98335270,.0002405,70.0023,101.5665,270.3048,89.7836,0,U,67080,999,2942,.22812E-3,.263E-4,0
STARLINK-35864,2025-298G,2026-06-25T20:41:04.343712,14.98336831,.0002757,70.0020,101.5964,255.5705,104.5149,0,U,67081,999,2942,.17213E-3,.1962E-4,0
STARLINK-36035,2025-298H,2026-06-25T20:53:05.889120,14.98336794,.0002693,70.0019,101.6260,273.6973,86.3878,0,U,67082,999,2942,.55953E-3,.6591E-4,0
